<?xml version="1.0" encoding="UTF-8"?>
<ndm xmlns:xsi="http://www.w3.org/2001/XMLSchema-instance" xsi:noNamespaceSchemaLocation="https://sanaregistry.org/r/ndmxml_unqualified/ndmxml-2.0.0-master-2.0.xsd">
<omm id="CCSDS_OMM_VERS" version="2.0">
<header><CREATION_DATE/><ORIGINATOR/></header><body><segment><metadata><OBJECT_NAME>GLOBALSTAR M035</OBJECT_NAME><OBJECT_ID>1999-037A</OBJECT_ID><CENTER_NAME>EARTH</CENTER_NAME><REF_FRAME>TEME</REF_FRAME><TIME_SYSTEM>UTC</TIME_SYSTEM><MEAN_ELEMENT_THEORY>SGP4</MEAN_ELEMENT_THEORY></metadata><data><meanElements><EPOCH>2025-05-11T11:57:07.286400</EPOCH><MEAN_MOTION>11.04538717</MEAN_MOTION><ECCENTRICITY>.0014149</ECCENTRICITY><INCLINATION>51.9910</INCLINATION><RA_OF_ASC_NODE>136.7852</RA_OF_ASC_NODE><ARG_OF_PERICENTER>282.0007</ARG_OF_PERICENTER><MEAN_ANOMALY>250.1948</MEAN_ANOMALY></meanElements><tleParameters><EPHEMERIS_TYPE>0</EPHEMERIS_TYPE><CLASSIFICATION_TYPE>U</CLASSIFICATION_TYPE><NORAD_CAT_ID>25851</NORAD_CAT_ID><ELEMENT_SET_NO>999</ELEMENT_SET_NO><REV_AT_EPOCH>9220</REV_AT_EPOCH><BSTAR>.25581E-2</BSTAR><MEAN_MOTION_DOT>.4E-7</MEAN_MOTION_DOT><MEAN_MOTION_DDOT>0</MEAN_MOTION_DDOT></tleParameters></data></segment></body></omm>
<omm id="CCSDS_OMM_VERS" version="2.0">
<header><CREATION_DATE/><ORIGINATOR/></header><body><segment><metadata><OBJECT_NAME>GLOBALSTAR M032</OBJECT_NAME><OBJECT_ID>1999-037B</OBJECT_ID><CENTER_NAME>EARTH</CENTER_NAME><REF_FRAME>TEME</REF_FRAME><TIME_SYSTEM>UTC</TIME_SYSTEM><MEAN_ELEMENT_THEORY>SGP4</MEAN_ELEMENT_THEORY></metadata><data><meanElements><EPOCH>2025-05-11T12:44:18.088224</EPOCH><MEAN_MOTION>11.19060397</MEAN_MOTION><ECCENTRICITY>.0012868</ECCENTRICITY><INCLINATION>51.9973</INCLINATION><RA_OF_ASC_NODE>324.4396</RA_OF_ASC_NODE><ARG_OF_PERICENTER>105.1369</ARG_OF_PERICENTER><MEAN_ANOMALY>255.0855</MEAN_ANOMALY></meanElements><tleParameters><EPHEMERIS_TYPE>0</EPHEMERIS_TYPE><CLASSIFICATION_TYPE>U</CLASSIFICATION_TYPE><NORAD_CAT_ID>25852</NORAD_CAT_ID><ELEMENT_SET_NO>999</ELEMENT_SET_NO><REV_AT_EPOCH>13068</REV_AT_EPOCH><BSTAR>-.35761E-3</BSTAR><MEAN_MOTION_DOT>-.78E-6</MEAN_MOTION_DOT><MEAN_MOTION_DDOT>0</MEAN_MOTION_DDOT></tleParameters></data></segment></body></omm>
<omm id="CCSDS_OMM_VERS" version="2.0">
<header><CREATION_DATE/><ORIGINATOR/></header><body><segment><metadata><OBJECT_NAME>GLOBALSTAR M051</OBJECT_NAME><OBJECT_ID>1999-037C</OBJECT_ID><CENTER_NAME>EARTH</CENTER_NAME><REF_FRAME>TEME</REF_FRAME><TIME_SYSTEM>UTC</TIME_SYSTEM><MEAN_ELEMENT_THEORY>SGP4</MEAN_ELEMENT_THEORY></metadata><data><meanElements><EPOCH>2025-05-11T17:41:11.883840</EPOCH><MEAN_MOTION>11.42204815</MEAN_MOTION><ECCENTRICITY>.0000539</ECCENTRICITY><INCLINATION>51.9754</INCLINATION><RA_OF_ASC_NODE>128.8226</RA_OF_ASC_NODE><ARG_OF_PERICENTER>165.6542</ARG_OF_PERICENTER><MEAN_ANOMALY>194.4284</MEAN_ANOMALY></meanElements><tleParameters><EPHEMERIS_TYPE>0</EPHEMERIS_TYPE><CLASSIFICATION_TYPE>U</CLASSIFICATION_TYPE><NORAD_CAT_ID>25853</NORAD_CAT_ID><ELEMENT_SET_NO>999</ELEMENT_SET_NO><REV_AT_EPOCH>12824</REV_AT_EPOCH><BSTAR>.1325E-3</BSTAR><MEAN_MOTION_DOT>-.67E-6</MEAN_MOTION_DOT><MEAN_MOTION_DDOT>0</MEAN_MOTION_DDOT></tleParameters></data></segment></body></omm>
<omm id="CCSDS_OMM_VERS" version="2.0">
<header><CREATION_DATE/><ORIGINATOR/></header><body><segment><metadata><OBJECT_NAME>GLOBALSTAR M030</OBJECT_NAME><OBJECT_ID>1999-037D</OBJECT_ID><CENTER_NAME>EARTH</CENTER_NAME><REF_FRAME>TEME</REF_FRAME><TIME_SYSTEM>UTC</TIME_SYSTEM><MEAN_ELEMENT_THEORY>SGP4</MEAN_ELEMENT_THEORY></metadata><data><meanElements><EPOCH>2025-05-11T11:31:08.924160</EPOCH><MEAN_MOTION>11.55108470</MEAN_MOTION><ECCENTRICITY>.0002936</ECCENTRICITY><INCLINATION>51.9884</INCLINATION><RA_OF_ASC_NODE>297.8850</RA_OF_ASC_NODE><ARG_OF_PERICENTER>354.4720</ARG_OF_PERICENTER><MEAN_ANOMALY>5.6064</MEAN_ANOMALY></meanElements><tleParameters><EPHEMERIS_TYPE>0</EPHEMERIS_TYPE><CLASSIFICATION_TYPE>U</CLASSIFICATION_TYPE><NORAD_CAT_ID>25854</NORAD_CAT_ID><ELEMENT_SET_NO>999</ELEMENT_SET_NO><REV_AT_EPOCH>14580</REV_AT_EPOCH><BSTAR>.62518E-3</BSTAR><MEAN_MOTION_DOT>-.45E-6</MEAN_MOTION_DOT><MEAN_MOTION_DDOT>0</MEAN_MOTION_DDOT></tleParameters></data></segment></body></omm>
<omm id="CCSDS_OMM_VERS" version="2.0">
<header><CREATION_DATE/><ORIGINATOR/></header><body><segment><metadata><OBJECT_NAME>GLOBALSTAR M048</OBJECT_NAME><OBJECT_ID>1999-041A</OBJECT_ID><CENTER_NAME>EARTH</CENTER_NAME><REF_FRAME>TEME</REF_FRAME><TIME_SYSTEM>UTC</TIME_SYSTEM><MEAN_ELEMENT_THEORY>SGP4</MEAN_ELEMENT_THEORY></metadata><data><meanElements><EPOCH>2025-05-11T13:23:02.794272</EPOCH><MEAN_MOTION>11.33856562</MEAN_MOTION><ECCENTRICITY>.0013237</ECCENTRICITY><INCLINATION>51.9380</INCLINATION><RA_OF_ASC_NODE>62.8705</RA_OF_ASC_NODE><ARG_OF_PERICENTER>119.6536</ARG_OF_PERICENTER><MEAN_ANOMALY>51.1116</MEAN_ANOMALY></meanElements><tleParameters><EPHEMERIS_TYPE>0</EPHEMERIS_TYPE><CLASSIFICATION_TYPE>U</CLASSIFICATION_TYPE><NORAD_CAT_ID>25872</NORAD_CAT_ID><ELEMENT_SET_NO>999</ELEMENT_SET_NO><REV_AT_EPOCH>12082</REV_AT_EPOCH><BSTAR>-.16492E-3</BSTAR><MEAN_MOTION_DOT>-.76E-6</MEAN_MOTION_DOT><MEAN_MOTION_DDOT>0</MEAN_MOTION_DDOT></tleParameters></data></segment></body></omm>
<omm id="CCSDS_OMM_VERS" version="2.0">
<header><CREATION_DATE/><ORIGINATOR/></header><body><segment><metadata><OBJECT_NAME>GLOBALSTAR M026</OBJECT_NAME><OBJECT_ID>1999-041B</OBJECT_ID><CENTER_NAME>EARTH</CENTER_NAME><REF_FRAME>TEME</REF_FRAME><TIME_SYSTEM>UTC</TIME_SYSTEM><MEAN_ELEMENT_THEORY>SGP4</MEAN_ELEMENT_THEORY></metadata><data><meanElements><EPOCH>2025-05-11T09:15:20.738880</EPOCH><MEAN_MOTION>11.06837554</MEAN_MOTION><ECCENTRICITY>.0002218</ECCENTRICITY><INCLINATION>52.0010</INCLINATION><RA_OF_ASC_NODE>255.3845</RA_OF_ASC_NODE><ARG_OF_PERICENTER>189.4382</ARG_OF_PERICENTER><MEAN_ANOMALY>203.0827</MEAN_ANOMALY></meanElements><tleParameters><EPHEMERIS_TYPE>0</EPHEMERIS_TYPE><CLASSIFICATION_TYPE>U</CLASSIFICATION_TYPE><NORAD_CAT_ID>25873</NORAD_CAT_ID><ELEMENT_SET_NO>999</ELEMENT_SET_NO><REV_AT_EPOCH>14441</REV_AT_EPOCH><BSTAR>-.21117E-2</BSTAR><MEAN_MOTION_DOT>-.121E-5</MEAN_MOTION_DOT><MEAN_MOTION_DDOT>0</MEAN_MOTION_DDOT></tleParameters></data></segment></body></omm>
<omm id="CCSDS_OMM_VERS" version="2.0">
<header><CREATION_DATE/><ORIGINATOR/></header><body><segment><metadata><OBJECT_NAME>GLOBALSTAR M043</OBJECT_NAME><OBJECT_ID>1999-041C</OBJECT_ID><CENTER_NAME>EARTH</CENTER_NAME><REF_FRAME>TEME</REF_FRAME><TIME_SYSTEM>UTC</TIME_SYSTEM><MEAN_ELEMENT_THEORY>SGP4</MEAN_ELEMENT_THEORY></metadata><data><meanElements><EPOCH>2025-05-11T12:38:35.958912</EPOCH><MEAN_MOTION>11.25694278</MEAN_MOTION><ECCENTRICITY>.0013692</ECCENTRICITY><INCLINATION>51.9365</INCLINATION><RA_OF_ASC_NODE>169.1322</RA_OF_ASC_NODE><ARG_OF_PERICENTER>248.7718</ARG_OF_PERICENTER><MEAN_ANOMALY>260.7925</MEAN_ANOMALY></meanElements><tleParameters><EPHEMERIS_TYPE>0</EPHEMERIS_TYPE><CLASSIFICATION_TYPE>U</CLASSIFICATION_TYPE><NORAD_CAT_ID>25874</NORAD_CAT_ID><ELEMENT_SET_NO>999</ELEMENT_SET_NO><REV_AT_EPOCH>11874</REV_AT_EPOCH><BSTAR>.18055E-2</BSTAR><MEAN_MOTION_DOT>-.7E-7</MEAN_MOTION_DOT><MEAN_MOTION_DDOT>0</MEAN_MOTION_DDOT></tleParameters></data></segment></body></omm>
<omm id="CCSDS_OMM_VERS" version="2.0">
<header><CREATION_DATE/><ORIGINATOR/></header><body><segment><metadata><OBJECT_NAME>GLOBALSTAR M028</OBJECT_NAME><OBJECT_ID>1999-041D</OBJECT_ID><CENTER_NAME>EARTH</CENTER_NAME><REF_FRAME>TEME</REF_FRAME><TIME_SYSTEM>UTC</TIME_SYSTEM><MEAN_ELEMENT_THEORY>SGP4</MEAN_ELEMENT_THEORY></metadata><data><meanElements><EPOCH>2025-05-11T18:54:00.739584</EPOCH><MEAN_MOTION>12.50582287</MEAN_MOTION><ECCENTRICITY>.006296</ECCENTRICITY><INCLINATION>51.9631</INCLINATION><RA_OF_ASC_NODE>301.6038</RA_OF_ASC_NODE><ARG_OF_PERICENTER>353.1501</ARG_OF_PERICENTER><MEAN_ANOMALY>6.8494</MEAN_ANOMALY></meanElements><tleParameters><EPHEMERIS_TYPE>0</EPHEMERIS_TYPE><CLASSIFICATION_TYPE>U</CLASSIFICATION_TYPE><NORAD_CAT_ID>25875</NORAD_CAT_ID><ELEMENT_SET_NO>999</ELEMENT_SET_NO><REV_AT_EPOCH>18565</REV_AT_EPOCH><BSTAR>-.26806E-4</BSTAR><MEAN_MOTION_DOT>-.104E-5</MEAN_MOTION_DOT><MEAN_MOTION_DDOT>0</MEAN_MOTION_DDOT></tleParameters></data></segment></body></omm>

</ndm>
