GLOBALSTAR M035         
1 25851U 99037A   25131.49800100  .00000004  00000+0  25581-2 0  9999
2 25851  51.9910 136.7852 0014149 282.0007 250.1948 11.04538717 92207
GLOBALSTAR M032         
1 25852U 99037B   25131.53076491 -.00000078  00000+0 -35761-3 0  9998
2 25852  51.9973 324.4396 0012868 105.1369 255.0855 11.19060397130684
GLOBALSTAR M051         
1 25853U 99037C   25131.73694310 -.00000067  00000+0  13250-3 0  9993
2 25853  51.9754 128.8226 0000539 165.6542 194.4284 11.42204815128248
GLOBALSTAR M030         
1 25854U 99037D   25131.47996440 -.00000045  00000+0  62518-3 0  9991
2 25854  51.9884 297.8850 0002936 354.4720   5.6064 11.55108470145806
GLOBALSTAR M048         
1 25872U 99041A   25131.55767123 -.00000076  00000+0 -16492-3 0  9994
2 25872  51.9380  62.8705 0013237 119.6536  51.1116 11.33856562120825
GLOBALSTAR M026         
1 25873U 99041B   25131.38565670 -.00000121  00000+0 -21117-2 0  9999
2 25873  52.0010 255.3845 0002218 189.4382 203.0827 11.06837554144411
GLOBALSTAR M043         
1 25874U 99041C   25131.52680508 -.00000007  00000+0  18055-2 0  9993
2 25874  51.9365 169.1322 0013692 248.7718 260.7925 11.25694278118746
GLOBALSTAR M028         
1 25875U 99041D   25131.78750856 -.00000104  00000+0 -26806-4 0  9990
2 25875  51.9631 301.6038 0062960 353.1501   6.8494 12.50582287185652
